{
  "type": "FeatureCollection",
  "features": [
    {
      "type": "Feature",
      "properties": {
        "norad_id": 25590,
        "name": "COSMOS 2361",
        "group": "musson",
        "lat": -61.14712944689532,
        "lon": 178.94534141585552,
        "alt_km": 976.2100130436384,
        "timestamp": "2025-12-10T05:46:14.091992+00:00",
        "meta_object_name": "COSMOS 2361",
        "meta_object_id": "1998-076A",
        "meta_epoch": "2025-12-09T18:56:43.982016",
        "meta_mean_motion": 13.73217061,
        "meta_eccentricity": 0.0030059,
        "meta_inclination": 82.9338,
        "meta_ra_of_asc_node": 346.2687,
        "meta_arg_of_pericenter": 274.1725,
        "meta_mean_anomaly": 259.3866,
        "meta_ephemeris_type": 0,
        "meta_classification_type": "U",
        "meta_norad_cat_id": 25590,
        "meta_element_set_no": 999,
        "meta_rev_at_epoch": 35070,
        "meta_bstar": 9.2375e-05,
        "meta_mean_motion_dot": 1.01e-06,
        "meta_mean_motion_ddot": 0,
        "tle_line1": "1 25590U 98076A   25343.78939794  .00000101  00000+0  92375-4 0  9995",
        "tle_line2": "2 25590  82.9338 346.2687 0030059 274.1725 259.3866 13.73217061350702"
      },
      "geometry": {
        "type": "Point",
        "coordinates": [
          178.94534141585552,
          -61.14712944689532
        ]
      }
    },
    {
      "type": "Feature",
      "properties": {
        "norad_id": 26818,
        "name": "COSMOS 2378",
        "group": "musson",
        "lat": -52.731542892956334,
        "lon": -7.8114922294428055,
        "alt_km": 993.5900542549098,
        "timestamp": "2025-12-10T05:46:14.092014+00:00",
        "meta_object_name": "COSMOS 2378",
        "meta_object_id": "2001-023A",
        "meta_epoch": "2025-12-09T11:20:25.595808",
        "meta_mean_motion": 13.74141611,
        "meta_eccentricity": 0.00322219,
        "meta_inclination": 82.9273,
        "meta_ra_of_asc_node": 2.1477,
        "meta_arg_of_pericenter": 214.1503,
        "meta_mean_anomaly": 255.5383,
        "meta_ephemeris_type": 0,
        "meta_classification_type": "U",
        "meta_norad_cat_id": 26818,
        "meta_element_set_no": 999,
        "meta_rev_at_epoch": 22878,
        "meta_bstar": 6.2265285e-05,
        "meta_mean_motion_dot": 7.4e-07,
        "meta_mean_motion_ddot": 0,
        "tle_line1": "1 26818U 01023A   25343.47251847  .00000074  00000+0  62265-4 0  9991",
        "tle_line2": "2 26818  82.9273   2.1477 0032221 214.1503 255.5383 13.74141611228782"
      },
      "geometry": {
        "type": "Point",
        "coordinates": [
          -7.8114922294428055,
          -52.731542892956334
        ]
      }
    },
    {
      "type": "Feature",
      "properties": {
        "norad_id": 27436,
        "name": "COSMOS 2389",
        "group": "musson",
        "lat": 34.85717799777918,
        "lon": 123.89062332812178,
        "alt_km": 970.8656224964534,
        "timestamp": "2025-12-10T05:46:14.092028+00:00",
        "meta_object_name": "COSMOS 2389",
        "meta_object_id": "2002-026A",
        "meta_epoch": "2025-12-09T20:27:51.412032",
        "meta_mean_motion": 13.75154194,
        "meta_eccentricity": 0.004768,
        "meta_inclination": 82.95,
        "meta_ra_of_asc_node": 309.122,
        "meta_arg_of_pericenter": 68.5853,
        "meta_mean_anomaly": 317.0736,
        "meta_ephemeris_type": 0,
        "meta_classification_type": "U",
        "meta_norad_cat_id": 27436,
        "meta_element_set_no": 999,
        "meta_rev_at_epoch": 18109,
        "meta_bstar": 9.4732e-05,
        "meta_mean_motion_dot": 1.07e-06,
        "meta_mean_motion_ddot": 0,
        "tle_line1": "1 27436U 02026A   25343.85267838  .00000107  00000+0  94732-4 0  9992",
        "tle_line2": "2 27436  82.9500 309.1220 0047680  68.5853 317.0736 13.75154194181091"
      },
      "geometry": {
        "type": "Point",
        "coordinates": [
          123.89062332812178,
          34.85717799777918
        ]
      }
    },
    {
      "type": "Feature",
      "properties": {
        "norad_id": 27818,
        "name": "COSMOS 2398",
        "group": "musson",
        "lat": 57.46451397342265,
        "lon": 83.35233993918834,
        "alt_km": 961.5942158013131,
        "timestamp": "2025-12-10T05:46:14.092039+00:00",
        "meta_object_name": "COSMOS 2398",
        "meta_object_id": "2003-023A",
        "meta_epoch": "2025-12-09T14:16:24.424896",
        "meta_mean_motion": 13.72385218,
        "meta_eccentricity": 0.0032474,
        "meta_inclination": 82.9483,
        "meta_ra_of_asc_node": 275.0158,
        "meta_arg_of_pericenter": 120.2105,
        "meta_mean_anomaly": 53.1442,
        "meta_ephemeris_type": 0,
        "meta_classification_type": "U",
        "meta_norad_cat_id": 27818,
        "meta_element_set_no": 999,
        "meta_rev_at_epoch": 12773,
        "meta_bstar": 9.6723e-05,
        "meta_mean_motion_dot": 1.04e-06,
        "meta_mean_motion_ddot": 0,
        "tle_line1": "1 27818U 03023A   25343.59472714  .00000104  00000+0  96723-4 0  9995",
        "tle_line2": "2 27818  82.9483 275.0158 0032474 120.2105  53.1442 13.72385218127730"
      },
      "geometry": {
        "type": "Point",
        "coordinates": [
          83.35233993918834,
          57.46451397342265
        ]
      }
    },
    {
      "type": "Feature",
      "properties": {
        "norad_id": 28380,
        "name": "COSMOS 2407",
        "group": "musson",
        "lat": -76.21797512301715,
        "lon": -175.5010460821855,
        "alt_km": 1006.963310770614,
        "timestamp": "2025-12-10T05:46:14.092050+00:00",
        "meta_object_name": "COSMOS 2407",
        "meta_object_id": "2004-028A",
        "meta_epoch": "2025-12-09T14:37:11.798112",
        "meta_mean_motion": 13.76313188,
        "meta_eccentricity": 0.0040424,
        "meta_inclination": 82.9611,
        "meta_ra_of_asc_node": 215.2104,
        "meta_arg_of_pericenter": 63.3371,
        "meta_mean_anomaly": 332.8285,
        "meta_ephemeris_type": 0,
        "meta_classification_type": "U",
        "meta_norad_cat_id": 28380,
        "meta_element_set_no": 999,
        "meta_rev_at_epoch": 7380,
        "meta_bstar": 8.1837e-05,
        "meta_mean_motion_dot": 9.6e-07,
        "meta_mean_motion_ddot": 0,
        "tle_line1": "1 28380U 04028A   25343.60916433  .00000096  00000+0  81837-4 0  9999",
        "tle_line2": "2 28380  82.9611 215.2104 0040424  63.3371 332.8285 13.76313188 73802"
      },
      "geometry": {
        "type": "Point",
        "coordinates": [
          -175.5010460821855,
          -76.21797512301715
        ]
      }
    },
    {
      "type": "Feature",
      "properties": {
        "norad_id": 28521,
        "name": "COSMOS 2414",
        "group": "musson",
        "lat": 78.64172681312424,
        "lon": -135.4200644028399,
        "alt_km": 916.2689248128709,
        "timestamp": "2025-12-10T05:46:14.092061+00:00",
        "meta_object_name": "COSMOS 2414",
        "meta_object_id": "2005-002A",
        "meta_epoch": "2025-12-09T12:04:42.141792",
        "meta_mean_motion": 13.8790242,
        "meta_eccentricity": 0.0040705,
        "meta_inclination": 82.9495,
        "meta_ra_of_asc_node": 187.1073,
        "meta_arg_of_pericenter": 148.7649,
        "meta_mean_anomaly": 211.5945,
        "meta_ephemeris_type": 0,
        "meta_classification_type": "U",
        "meta_norad_cat_id": 28521,
        "meta_element_set_no": 999,
        "meta_rev_at_epoch": 5750,
        "meta_bstar": 8.3686963e-05,
        "meta_mean_motion_dot": 1.16e-06,
        "meta_mean_motion_ddot": 0,
        "tle_line1": "1 28521U 05002A   25343.50326553  .00000116  00000+0  83687-4 0  9994",
        "tle_line2": "2 28521  82.9495 187.1073 0040705 148.7649 211.5945 13.87902420 57509"
      },
      "geometry": {
        "type": "Point",
        "coordinates": [
          -135.4200644028399,
          78.64172681312424
        ]
      }
    },
    {
      "type": "Feature",
      "properties": {
        "norad_id": 32052,
        "name": "COSMOS 2429",
        "group": "musson",
        "lat": -30.164219375104395,
        "lon": -18.954595574944815,
        "alt_km": 979.4050321802588,
        "timestamp": "2025-12-10T05:46:14.092072+00:00",
        "meta_object_name": "COSMOS 2429",
        "meta_object_id": "2007-038A",
        "meta_epoch": "2025-12-09T10:42:32.023872",
        "meta_mean_motion": 13.75148904,
        "meta_eccentricity": 0.00393967,
        "meta_inclination": 82.9802,
        "meta_ra_of_asc_node": 345.737,
        "meta_arg_of_pericenter": 46.8383,
        "meta_mean_anomaly": 313.6055,
        "meta_ephemeris_type": 0,
        "meta_classification_type": "U",
        "meta_norad_cat_id": 32052,
        "meta_element_set_no": 999,
        "meta_rev_at_epoch": 91557,
        "meta_bstar": 7.3832477e-05,
        "meta_mean_motion_dot": 8.6e-07,
        "meta_mean_motion_ddot": 0,
        "tle_line1": "1 32052U 07038A   25343.44620398  .00000086  00000+0  73832-4 0  9993",
        "tle_line2": "2 32052  82.9802 345.7370 0039396  46.8383 313.6055 13.75148904915576"
      },
      "geometry": {
        "type": "Point",
        "coordinates": [
          -18.954595574944815,
          -30.164219375104395
        ]
      }
    },
    {
      "type": "Feature",
      "properties": {
        "norad_id": 35635,
        "name": "COSMOS 2454",
        "group": "musson",
        "lat": 65.34342486939106,
        "lon": -25.08730256394495,
        "alt_km": 910.003841955594,
        "timestamp": "2025-12-10T05:46:14.092082+00:00",
        "meta_object_name": "COSMOS 2454",
        "meta_object_id": "2009-039A",
        "meta_epoch": "2025-12-09T18:54:37.394784",
        "meta_mean_motion": 13.89927975,
        "meta_eccentricity": 0.0020478,
        "meta_inclination": 82.9555,
        "meta_ra_of_asc_node": 170.8826,
        "meta_arg_of_pericenter": 81.6227,
        "meta_mean_anomaly": 288.9561,
        "meta_ephemeris_type": 0,
        "meta_classification_type": "U",
        "meta_norad_cat_id": 35635,
        "meta_element_set_no": 999,
        "meta_rev_at_epoch": 83109,
        "meta_bstar": 5.9146e-05,
        "meta_mean_motion_dot": 8.9e-07,
        "meta_mean_motion_ddot": 0,
        "tle_line1": "1 35635U 09039A   25343.78793281  .00000089  00000+0  59146-4 0  9990",
        "tle_line2": "2 35635  82.9555 170.8826 0020478  81.6227 288.9561 13.89927975831097"
      },
      "geometry": {
        "type": "Point",
        "coordinates": [
          -25.08730256394495,
          65.34342486939106
        ]
      }
    },
    {
      "type": "Feature",
      "properties": {
        "norad_id": 36519,
        "name": "COSMOS 2463",
        "group": "musson",
        "lat": -41.54293201853979,
        "lon": 22.265030266179,
        "alt_km": 976.5032377922898,
        "timestamp": "2025-12-10T05:46:14.092092+00:00",
        "meta_object_name": "COSMOS 2463",
        "meta_object_id": "2010-017A",
        "meta_epoch": "2025-12-09T12:59:58.877088",
        "meta_mean_motion": 13.71648838,
        "meta_eccentricity": 0.003486,
        "meta_inclination": 82.9616,
        "meta_ra_of_asc_node": 29.0627,
        "meta_arg_of_pericenter": 297.2558,
        "meta_mean_anomaly": 172.124,
        "meta_ephemeris_type": 0,
        "meta_classification_type": "U",
        "meta_norad_cat_id": 36519,
        "meta_element_set_no": 999,
        "meta_rev_at_epoch": 78193,
        "meta_bstar": 7.571e-05,
        "meta_mean_motion_dot": 8.3e-07,
        "meta_mean_motion_ddot": 0,
        "tle_line1": "1 36519U 10017A   25343.54165367  .00000083  00000+0  75710-4 0  9991",
        "tle_line2": "2 36519  82.9616  29.0627 0034860 297.2558 172.1240 13.71648838781937"
      },
      "geometry": {
        "type": "Point",
        "coordinates": [
          22.265030266179,
          -41.54293201853979
        ]
      }
    }
  ]
}